ONEWEB-0055             
1 45443U 20020V   22055.48148956 -.00000389  00000+0 -11338-2 0  9992
2 45443  87.8941 333.9439 0001759  87.9594 272.1735 13.11415216 96352
ONEWEB-0093             
1 45444U 20020W   22055.53311882  .00000453  00000+0  12428-2 0  9990
2 45444  87.8931 333.9670 0001744  89.2250 270.9078 13.11415017 96420
ONEWEB-0029             
1 45445U 20020X   22055.47924823 -.00000316  00000+0 -92664-3 0  9990
2 45445  87.8933 333.9610 0001329  86.2103 273.9177 13.11414833 96394
ONEWEB-0068             
1 45446U 20020Y   22055.52526254  .00000553  00000+0  15232-2 0  9999
2 45446  87.8931 333.9663 0001735  94.9460 265.1866 13.11417917 96343
ONEWEB-0046             
1 45447U 20020Z   22055.52189658  .00000498  00000+0  13699-2 0  9996
2 45447  87.8933 333.9748 0001640  75.4474 284.6836 13.11418251 96350
ONEWEB-0063             
1 45448U 20020AA  22055.47476551 -.00000174  00000+0 -52601-3 0  9992
2 45448  87.8924 333.9766 0001643  68.8970 291.2334 13.11415664 96432
ONEWEB-0019             
1 45449U 20020AB  22055.52638761  .00000555  00000+0  15300-2 0  9997
2 45449  87.8935 333.9543 0001865  77.5521 282.5816 13.11417200 96282
ONEWEB-0094             
1 45450U 20020AC  22055.23734661  .00000129  00000+0  29850-3 0  9996
2 45450  87.9106 318.7464 0001869  83.6520 276.4825 13.17646732 99037
ONEWEB-0087             
1 45451U 20020AD  22055.48373521 -.00000410  00000+0 -11928-2 0  9999
2 45451  87.8938 333.9967 0001342  91.3659 268.7622 13.11417696 96329
ONEWEB-0082             
1 45452U 20020AE  22055.48597640 -.00000531  00000+0 -15335-2 0  9990
2 45452  87.8930 333.9388 0001641  99.6830 260.4483 13.11415900 96413
ONEWEB-0050             
1 45453U 20020AF  22055.55423297  .00001235  00000+0  11011-3 0  9993
2 45453  87.5357 276.4102 0023457 261.5787  98.2784 14.94927446105405
ONEWEB-0034             
1 45454U 20020AG  22055.50394148 -.00000181  00000+0 -54527-3 0  9991
2 45454  87.8930 333.9579 0001491  84.4773 275.6525 13.11418483 96333
ONEWEB-0060             
1 45455U 20020AH  22055.51291446  .00000246  00000+0  65780-3 0  9993
2 45455  87.8935 333.9614 0001630  78.1627 281.9683 13.11419197 96295
ONEWEB-0086             
1 45456U 20020AJ  22055.53087732  .00000592  00000+0  16344-2 0  9992
2 45456  87.8931 333.9516 0001619  88.9228 271.2086 13.11415947 96351
ONEWEB-0088             
1 45457U 20020AK  22055.50617078 -.00000145  00000+0 -44526-3 0  9992
2 45457  87.8928 333.9749 0001448  78.1691 281.9600 13.11415563 96287
ONEWEB-0102             
1 47258U 20100A   22055.44661450  .00000465  00000+0  12579-2 0  9993
2 47258  87.8860 303.4925 0001776  91.1631 268.9701 13.12441946 58307
ONEWEB-0109             
1 47259U 20100B   22055.38192308  .00000180  00000+0  46406-3 0  9999
2 47259  87.8974 303.4620 0001826  84.3336 275.8001 13.12441242 58127
ONEWEB-0110             
1 47260U 20100C   22055.40501978 -.00000528  00000+0 -15024-2 0  9990
2 47260  87.8909 303.4630 0001921  92.1230 268.0118 13.12442306 58297
ONEWEB-0111             
1 47261U 20100D   22055.58755798  .00000268  00000+0  70859-3 0  9998
2 47261  87.8883 303.4547 0001757  88.6777 271.4553 13.12444489 58159
ONEWEB-0114             
1 47262U 20100E   22055.39116508 -.00000140  00000+0 -42573-3 0  9991
2 47262  87.8945 303.4067 0002121  78.2128 281.9238 13.12442919 58081
ONEWEB-0117             
1 47263U 20100F   22055.38423676  .00000114  00000+0  28045-3 0  9995
2 47263  87.8969 303.4666 0001772  86.5779 273.5552 13.12442360 58095
ONEWEB-0118             
1 47264U 20100G   22055.41426039 -.00000249  00000+0 -72834-3 0  9992
2 47264  87.8901 303.4520 0002026  59.3414 300.7914 13.12439530 58290
ONEWEB-0119             
1 47265U 20100H   22055.59448051  .00000408  00000+0  10990-2 0  9999
2 47265  87.8857 303.4683 0001775  86.0074 274.1257 13.12444669 58293
ONEWEB-0120             
1 47266U 20100J   22055.39578265 -.00000270  00000+0 -78716-3 0  9999
2 47266  87.8931 303.5148 0001972  82.2776 277.8576 13.12442392 58295
ONEWEB-0121             
1 47267U 20100K   22055.37961628  .00000239  00000+0  62879-3 0  9993
2 47267  87.8902 303.5804 0001587  90.0969 270.0341 13.12439855 58202
ONEWEB-0122             
1 47268U 20100L   22055.44892386  .00000346  00000+0  92662-3 0  9998
2 47268  87.8942 303.4413 0001799  86.0560 274.0774 13.12442469 58129
ONEWEB-0123             
1 47269U 20100M   22055.44430383  .00000410  00000+0  11049-2 0  9995
2 47269  87.8873 303.4854 0001762  81.0969 279.0359 13.12443896 58264
ONEWEB-0124             
1 47270U 20100N   22055.58292101  .00000187  00000+0  48355-3 0  9998
2 47270  87.8910 303.3602 0001375  94.6956 265.4329 13.12443699 58160
ONEWEB-0125             
1 47271U 20100P   22055.18093434 -.00000330  00000+0 -95170-3 0  9992
2 47271  87.8876 303.5967 0001986  78.4631 281.6720 13.12444809 58176
ONEWEB-0126             
1 47272U 20100Q   22055.58638467  .00000329  00000+0  87954-3 0  9995
2 47272  87.8878 303.5036 0001953  86.2969 273.8383 13.12443098 58291
ONEWEB-0127             
1 47273U 20100R   22055.39809834 -.00000373  00000+0 -10722-2 0  9992
2 47273  87.8904 303.4154 0001712  80.4330 279.6991 13.12442519 58299
ONEWEB-0128             
1 47274U 20100S   22055.19017507 -.00000097  00000+0 -30538-3 0  9990
2 47274  87.8907 303.4919 0001760  97.2414 262.8915 13.12443928 58288
ONEWEB-0129             
1 47275U 20100T   22055.40040754 -.00000408  00000+0 -11698-2 0  9996
2 47275  87.8968 303.4522 0003346  69.5324 290.6164 13.12442229 58244
ONEWEB-0130             
1 47276U 20100U   22055.42582049  .00000164  00000+0  42011-3 0  9998
2 47276  87.8904 303.4974 0001678  90.2097 269.9223 13.12448974 58215
ONEWEB-0131             
1 47277U 20100V   22055.57598454 -.00000036  00000+0 -13434-3 0  9999
2 47277  87.8904 303.4147 0001524  88.5056 271.6247 13.12445309 58274
ONEWEB-0132             
1 47278U 20100W   22055.37731455  .00000325  00000+0  86674-3 0  9993
2 47278  87.8867 303.5237 0001980  80.4419 279.6933 13.12441993 58145
ONEWEB-0133             
1 47279U 20100X   22055.39347654 -.00000227  00000+0 -66577-3 0  9993
2 47279  87.8899 303.4397 0001767  83.0222 277.1108 13.12442171 58305
ONEWEB-0134             
1 47280U 20100Y   22055.58984417  .00000371  00000+0  99679-3 0  9997
2 47280  87.8913 303.3979 0001771  94.1785 265.9546 13.12445213 58302
ONEWEB-0135             
1 47281U 20100Z   22055.40734687 -.00000428  00000+0 -12261-2 0  9997
2 47281  87.8898 303.4270 0001873  87.5824 272.5519 13.12444439 58306
ONEWEB-0136             
1 47282U 20100AA  22055.58060830  .00000130  00000+0  32580-3 0  9994
2 47282  87.8953 303.4231 0002439  99.3258 260.8146 13.12443597 58251
ONEWEB-0137             
1 47283U 20100AB  22055.38885411 -.00000081  00000+0 -25929-3 0  9999
2 47283  87.8901 303.4837 0001948  78.1586 281.9761 13.12443640 58133
ONEWEB-0138             
1 47284U 20100AC  22055.59216690  .00000380  00000+0  10221-2 0  9998
2 47284  87.8924 303.4372 0001979  87.3200 272.8155 13.12444094 58244
ONEWEB-0139             
1 47285U 20100AD  22055.41195657 -.00000409  00000+0 -11733-2 0  9992
2 47285  87.8884 303.5609 0001912  91.6026 268.5322 13.12443788 58297
ONEWEB-0140             
1 47286U 20100AE  22055.58523707  .00000253  00000+0  66881-3 0  9992
2 47286  87.8880 303.4638 0001854  88.3207 271.8134 13.12442158 58281
ONEWEB-0141             
1 47287U 20100AF  22055.42272842  .00059865  00000+0  16311+0 0  9999
2 47287  87.8909 303.4654 0000816 122.2258 237.8951 13.13354607 58240
ONEWEB-0142             
1 47288U 20100AG  22055.44545323  .00000435  00000+0  11736-2 0  9997
2 47288  87.8869 303.5602 0002051  79.6123 280.5237 13.12444120 58240
ONEWEB-0143             
1 47289U 20100AH  22055.40272877 -.00000383  00000+0 -10996-2 0  9996
2 47289  87.8903 303.4750 0001694  84.0558 276.0763 13.12440862 58217
ONEWEB-0144             
1 47290U 20100AJ  22055.37500276  .00000391  00000+0  10528-2 0  9999
2 47290  87.8946 303.4383 0001704  90.5324 269.5999 13.12442250 58135
ONEWEB-0145             
1 47291U 20100AK  22055.42120388 -.00000112  00000+0 -34807-3 0  9998
2 47291  87.8878 303.4726 0001806  82.5222 277.6112 13.12443080 58333
ONEWEB-0146             
1 47292U 20100AL  22055.41658736 -.00000264  00000+0 -76898-3 0  9995
2 47292  87.8916 303.4906 0000685  98.5403 261.5803 13.12443896 58243
ONEWEB-0147             
1 47293U 20100AM  22055.38654791  .00000086  00000+0  20253-3 0  9993
2 47293  87.8882 303.5050 0002373  91.8010 268.3390 13.12439602 58137
ONEWEB-0115             
1 48042U 21025A   22055.57535927  .00000181  00000+0  46039-3 0  9999
2 48042  87.8861 272.7966 0001532 102.2879 257.8422 13.13468900 47025
ONEWEB-0152             
1 48043U 21025B   22055.58656898  .00000326  00000+0  85643-3 0  9997
2 48043  87.8914 272.8206 0001740  96.8769 263.2558 13.13469821 46988
ONEWEB-0153             
1 48044U 21025C   22055.56414911 -.00000119  00000+0 -35954-3 0  9996
2 48044  87.8845 272.9629 0001674  84.3157 275.8163 13.13472589 46976
ONEWEB-0154             
1 48045U 21025D   22055.56191182 -.00000145  00000+0 -43092-3 0  9990
2 48045  87.8942 272.8652 0002050  87.5418 272.5946 13.13476105 46931
ONEWEB-0116             
1 48046U 21025E   22055.52831228  .00000049  00000+0  98203-4 0  9995
2 48046  87.8937 272.8625 0001224  93.4622 266.6647 13.13468809 47071
ONEWEB-0150             
1 48047U 21025F   22055.57761464  .00000189  00000+0  48310-3 0  9993
2 48047  87.8819 272.7708 0001854  80.2498 279.8840 13.13469956 46979
ONEWEB-0107             
1 48048U 21025G   22055.57985258  .00000319  00000+0  83821-3 0  9994
2 48048  87.8847 272.7786 0002144  79.8227 280.3143 13.13469936 46953
ONEWEB-0101             
1 48049U 21025H   22055.54399676 -.00000238  00000+0 -68621-3 0  9998
2 48049  87.8839 272.8401 0001907  90.9332 269.2015 13.13469539 46927
